GEOSCAN-4 (RS92S4)
1 64892U 25155S   26068.90981163  .00020121  00000-0  68610-3 0  9996
2 64892  97.4465  37.7626 0007097 154.7045 205.4544 15.30369837 65624
CSTP-1.2
1 57186U 23091W   26068.96698868  .00011466  00000-0  43036-3 0  9991
2 57186  97.5258 134.3262 0020439  84.9592 275.3979 15.27180760149307
